OBJECT_NAME,OBJECT_ID,EPOCH,MEAN_MOTION,ECCENTRICITY,INCLINATION,RA_OF_ASC_NODE,ARG_OF_PERICENTER,MEAN_ANOMALY,EPHEMERIS_TYPE,CLASSIFICATION_TYPE,NORAD_CAT_ID,ELEMENT_SET_NO,REV_AT_EPOCH,BSTAR,MEAN_MOTION_DOT,MEAN_MOTION_DDOT
ORBCOMM FM06,1997-084G,2026-07-20T04:36:43.417152,14.47632738,.00018225,45.0129,253.8168,248.5114,135.6303,0,U,25118,999,49917,.15177693E-3,.419E-5,0
ORBCOMM FM04,1998-007C,2026-07-21T01:06:45.116928,14.35790784,.00420271,107.9632,239.1096,266.9756,92.6575,0,U,25159,999,48145,.19847159E-3,.447E-5,0
ORBCOMM FM19,1998-046C,2026-07-21T02:31:51.008736,14.39548846,.00032783,44.9939,82.3272,101.7426,52.3118,0,U,25415,999,46166,.22834418E-3,.576E-5,0
ORBCOMM FM20,1998-046D,2026-07-21T01:16:16.329792,14.38105890,.00009517,44.9942,90.8742,40.5790,319.5129,0,U,25416,999,46166,.17826771E-3,.403E-5,0
ORBCOMM FM27,1998-053G,2026-07-20T07:11:16.495872,14.39190214,.00021794,45.0035,178.0730,310.1484,49.9173,0,U,25481,999,45500,.17039169E-3,.39E-5,0
ORBCOMM FM32,1999-065C,2026-07-21T05:07:31.724832,14.37173300,.00062038,45.0165,12.1737,220.5400,139.4987,0,U,25982,999,39198,.16712712E-3,.36E-5,0
ORBCOMM FM109,2014-040A,2026-07-20T07:32:42.922752,14.58873904,.00012789,47.0029,294.8609,339.1660,20.9173,0,U,40086,999,63918,.45328014E-4,.43E-6,0
ORBCOMM FM110,2015-081D,2026-07-21T06:40:01.168320,14.58924681,.00037972,47.0002,200.2466,245.9791,114.0697,0,U,41182,999,56260,.13342243E-3,.46E-5,0
ORBCOMM FM118,2015-081E,2026-07-21T00:55:12.924192,14.58909261,.00031511,47.0024,201.7190,211.5269,148.5428,0,U,41183,999,56267,.13037579E-3,.445E-5,0
ORBCOMM FM112,2015-081F,2026-07-21T04:18:00.922176,14.58944302,.00033252,46.9989,109.5015,354.8204,5.2647,0,U,41184,999,56391,.12196563E-3,.406E-5,0
ORBCOMM FM113,2015-081G,2026-07-21T03:46:05.633760,14.58886089,.0001894,47.0006,110.0008,345.4787,14.6045,0,U,41185,999,56389,.84079083E-4,.226E-5,0
ORBCOMM FM108,2015-081J,2026-07-20T21:55:20.950752,14.58915471,.00022966,47.0058,22.7343,344.7404,15.3412,0,U,41187,999,56500,.10477491E-3,.324E-5,0
ORBCOMM FM117,2015-081K,2026-07-20T19:27:27.635328,14.58901960,.00026718,47.0021,21.8454,352.5688,7.5158,0,U,41188,999,56503,.86617474E-4,.238E-5,0
ORBCOMM FM116,2015-081L,2026-07-21T03:11:53.723616,14.58911587,.00017359,47.0021,110.1098,245.9609,114.1095,0,U,41189,999,56389,.10610014E-3,.331E-5,0
