ORBCOMM FM06            
1 25118U 97084G   26201.19216918  .00000419  00000+0  15178-3 0  9991
2 25118  45.0129 253.8168 0001822 248.5114 135.6303 14.47632738499177
ORBCOMM FM04            
1 25159U 98007C   26202.04635552  .00000447  00000+0  19847-3 0  9994
2 25159 107.9632 239.1096 0042027 266.9756  92.6575 14.35790784481452
ORBCOMM FM19            
1 25415U 98046C   26202.10545149  .00000576  00000+0  22834-3 0  9994
2 25415  44.9939  82.3272 0003278 101.7426  52.3118 14.39548846461667
ORBCOMM FM20            
1 25416U 98046D   26202.05296678  .00000403  00000+0  17827-3 0  9994
2 25416  44.9942  90.8742 0000951  40.5790 319.5129 14.38105890461664
ORBCOMM FM27            
1 25481U 98053G   26201.29949648  .00000390  00000+0  17039-3 0  9991
2 25481  45.0035 178.0730 0002179 310.1484  49.9173 14.39190214455006
ORBCOMM FM32            
1 25982U 99065C   26202.21356163  .00000360  00000+0  16713-3 0  9993
2 25982  45.0165  12.1737 0006203 220.5400 139.4987 14.37173300391984
ORBCOMM FM109           
1 40086U 14040A   26201.31438568  .00000043  00000+0  45328-4 0  9998
2 40086  47.0029 294.8609 0001278 339.1660  20.9173 14.58873904639184
ORBCOMM FM110           
1 41182U 15081D   26202.27779130  .00000460  00000+0  13342-3 0  9994
2 41182  47.0002 200.2466 0003797 245.9791 114.0697 14.58924681562609
ORBCOMM FM118           
1 41183U 15081E   26202.03834403  .00000445  00000+0  13038-3 0  9999
2 41183  47.0024 201.7190 0003151 211.5269 148.5428 14.58909261562675
ORBCOMM FM112           
1 41184U 15081F   26202.17917734  .00000406  00000+0  12197-3 0  9996
2 41184  46.9989 109.5015 0003325 354.8204   5.2647 14.58944302563913
ORBCOMM FM113           
1 41185U 15081G   26202.15700965  .00000226  00000+0  84079-4 0  9990
2 41185  47.0006 110.0008 0001894 345.4787  14.6045 14.58886089563896
ORBCOMM FM108           
1 41187U 15081J   26201.91343693  .00000324  00000+0  10477-3 0  9995
2 41187  47.0058  22.7343 0002296 344.7404  15.3412 14.58915471565000
ORBCOMM FM117           
1 41188U 15081K   26201.81073652  .00000238  00000+0  86617-4 0  9994
2 41188  47.0021  21.8454 0002671 352.5688   7.5158 14.58901960565033
ORBCOMM FM116           
1 41189U 15081L   26202.13326069  .00000331  00000+0  10610-3 0  9997
2 41189  47.0021 110.1098 0001735 245.9609 114.1095 14.58911587563891
